{
    "links": {
        "self": "http://www.neowsapp.com/rest/v1/neo/3253149?api_key=iIulBulltgU6a56xZRHN4H3l9WmuAYTsLGpBGhQ2"
    },
    "id": "3253149",
    "neo_reference_id": "3253149",
    "name": "(2004 SA)",
    "designation": "2004 SA",
    "nasa_jpl_url": "http://ssd.jpl.nasa.gov/sbdb.cgi?sstr=3253149",
    "absolute_magnitude_h": 26.1,
    "estimated_diameter": {
        "kilometers": {
            "estimated_diameter_min": 0.0160160338,
            "estimated_diameter_max": 0.0358129403
        },
        "meters": {
            "estimated_diameter_min": 16.0160337979,
            "estimated_diameter_max": 35.8129403019
        },
        "miles": {
            "estimated_diameter_min": 0.0099518989,
            "estimated_diameter_max": 0.0222531225
        },
        "feet": {
            "estimated_diameter_min": 52.5460443254,
            "estimated_diameter_max": 117.4965270602
        }
    },
    "is_potentially_hazardous_asteroid": false,
    "close_approach_data": [
        {
            "close_approach_date": "2004-09-16",
            "close_approach_date_full": "2004-Sep-16 09:34",
            "epoch_date_close_approach": 1095327240000,
            "relative_velocity": {
                "kilometers_per_second": "12.3636040425",
                "kilometers_per_hour": "44508.9745529114",
                "miles_per_hour": "27656.1458826132"
            },
            "miss_distance": {
                "astronomical": "0.04033343",
                "lunar": "15.68970427",
                "kilometers": "6033795.2177941",
                "miles": "3749226.49439458"
            },
            "orbiting_body": "Earth"
        }
    ],
    "orbital_data": {
        "orbit_id": "7",
        "orbit_determination_date": "2017-04-06 09:12:15",
        "first_observation_date": "2004-09-16",
        "last_observation_date": "2004-09-17",
        "data_arc_in_days": 1,
        "observations_used": 29,
        "orbit_uncertainty": "8",
        "minimum_orbit_intersection": ".0402812",
        "jupiter_tisserand_invariant": "3.342",
        "epoch_osculation": "2453265.5",
        "eccentricity": ".5408086999960031",
        "semi_major_axis": "2.275553969969784",
        "inclination": "18.46978926332332",
        "ascending_node_longitude": "173.9364830223979",
        "orbital_period": "1253.802516714007",
        "perihelion_distance": "1.044914585699681",
        "perihelion_argument": "183.1878486859899",
        "aphelion_distance": "3.506193354239887",
        "perihelion_time": "2453267.677435424347",
        "mean_anomaly": "359.3748004631389",
        "mean_motion": ".287126557173849",
        "equinox": "J2000",
        "orbit_class": {
            "orbit_class_type": "AMO",
            "orbit_class_description": "Near-Earth asteroid orbits similar to that of 1221 Amor",
            "orbit_class_range": "1.017 AU < q (perihelion) < 1.3 AU"
        }
    },
    "is_sentry_object": false
}